POPACS 3                
1 39270U 13055F   24103.42573418  .00008267  00000+0  23190-3 0  9999
2 39270  81.0131 359.2215 0633589 299.5207  54.4224 14.35336019523525
ZACUBE-1 (TSHEPISOSAT)  
1 39417U 13066B   24103.45698773  .00005281  00000+0  56375-3 0  9993
2 39417  97.7295  60.9694 0052369  20.0177 340.3078 14.88218241561805
WNISAT-1                
1 39423U 13066H   24103.55780158  .00001308  00000+0  25981-3 0  9995
2 39423  97.6752 303.1984 0169861 214.9692 144.0258 14.54984269551109
TRITON-1                
1 39427U 13066M   24103.80345270  .00003838  00000+0  55210-3 0  9997
2 39427  97.8426  23.9265 0102282 293.1323  65.9132 14.73423492556773
DELFI-N3XT              
1 39428U 13066N   24103.37764224  .00006582  00000+0  86656-3 0  9991
2 39428  97.8392  23.5068 0101569 302.6107  56.5330 14.76899722556374
GOMX-1                  
1 39430U 13066Q   24103.77638277  .00002444  00000+0  41364-3 0  9996
2 39430  97.7415 342.1094 0142768 100.5883 261.1438 14.63623012553477
CUBEBUG-2 (LO-74)       
1 39440U 13066AA  24103.59216696  .00004392  00000+0  53007-3 0  9995
2 39440  97.8092  48.7409 0072501 127.4652 233.3185 14.82406345558618
NEE-02 KRYSAOR          
1 39441U 13066AB  24103.31241969  .00002357  00000+0  30723-3 0  9996
2 39441  97.8183  44.5789 0075937 148.9500 211.6233 14.79491044558193
FUNCUBE-1 (AO-73)       
1 39444U 13066AE  24103.46970006  .00007365  00000+0  73671-3 0  9999
2 39444  97.7148  63.9501 0049357   2.0289 358.1121 14.90807775560319
UWE-3                   
1 39446U 13066AG  24103.58507753  .00005051  00000+0  57594-3 0  9995
2 39446  97.7764  54.7932 0063534  75.4234 285.4016 14.85096399558967
BRITE-CA1 (TORONTO)     
1 40020U 14033L   24103.37061957  .00001147  00000+0  19388-3 0  9999
2 40020  97.8666 242.8631 0082472 302.6971  56.6301 14.69085109525205
DUCHIFAT-1              
1 40021U 14033M   24103.45818127  .00010773  00000+0  76379-3 0  9996
2 40021  98.0889  84.0439 0011803 333.2059  26.8555 15.04919346534237
NANOSATC-BR1            
1 40024U 14033Q   24103.47796718  .00009467  00000+0  73639-3 0  9996
2 40024  98.0554  72.9667 0008556  42.7315 317.4572 15.01475269533387
QB50P1                  
1 40025U 14033R   24103.40551750  .00006856  00000+0  58012-3 0  9992
2 40025  98.0360  62.0911 0010796  23.0930 337.0775 14.98327996533021
QB50P2                  
1 40032U 14033Y   24103.58665423  .00006750  00000+0  58858-3 0  9993
2 40032  98.0016  54.3896 0010511  23.0080 337.1610 14.97162571532858
PERSEUS-M2              
1 40037U 14033AD  24103.49446693  .00002666  00000+0  28190-3 0  9992
2 40037  97.9249  34.0865 0014771  55.9646 304.2971 14.89991853532044
PERSEUS-M1              
1 40039U 14033AF  24103.37494136  .00002034  00000+0  21785-3 0  9998
2 40039  97.9055  30.2085 0014559  55.7088 304.5505 14.89737881531881
POLYITAN-1              
1 40042U 14033AJ  24103.58532711  .00010832  00000+0  86078-3 0  9998
2 40042  98.0571  65.3125 0014451   6.2139 353.9260 15.00561717532999
TIGRISAT                
1 40043U 14033AK  24103.43301929  .00003195  00000+0  43441-3 0  9999
2 40043  97.6892 269.0523 0056661 156.7399 203.6396 14.78346864527740
AEROCUBE 6A             
1 40045U 14033AM  24103.47628255  .00006495  00000+0  79895-3 0  9997
2 40045  97.6672 279.6143 0052429 136.9069 223.6268 14.82328785528057
AEROCUBE 6B             
1 40046U 14033AN  24103.48271847  .00006778  00000+0  81756-3 0  9993
2 40046  97.6630 278.2696 0051104 132.6954 227.8582 14.83176369528106
UKUBE-1                 
1 40074U 14037F   24103.59949803  .00007241  00000+0  71229-3 0  9994
2 40074  98.3415  29.5699 0002374 305.6484  54.4512 14.92436441528995
BRITE-PL2 (HEWELIUSZ)   
1 40119U 14049B   24103.27807665  .00002613  00000+0  28789-3 0  9992
2 40119  97.8778 203.2850 0015425 217.4824 142.5318 14.88325587522776
CP10 (EXOCUBE)          
1 40380U 15003E   24103.73987661  .00099635  00000+0  94898-3 0  9993
2 40380  99.1019 110.5250 0047433 345.4656  14.5231 15.65013158509133
AEROCUBE 5C             
1 40965U 15058B   24103.62717348  .00002921  00000+0  28749-3 0  9997
2 40965  64.7707 202.8104 0186697 328.4905  30.5125 14.81979478247313
AEROCUBE 7              
1 40966U 15058C   24103.58574343  .00003852  00000+0  36257-3 0  9996
2 40966  64.7684 197.2809 0182308 328.2118  30.8085 14.83622647247375
VELOX-II                
1 41171U 15077F   24103.45404979  .00073280  00000+0  10827-2 0  9995
2 41171  14.9883 212.3084 0003634 165.7477 194.2952 15.53444838461482
HORYU-4                 
1 41340U 16012D   24103.20896636  .00011672  00000+0  61564-3 0  9993
2 41340  31.0038  44.9724 0010115  16.4989 343.5978 15.14272143448133
E-ST@R-II               
1 41459U 16025D   24103.75699237  .00297579  00000+0  15408-2 0  9993
2 41459  98.1289 347.6430 0038054 108.7964 251.7435 15.79204651439333
RAVAN                   
1 41849U 16067B   24103.45183730  .00008477  00000+0  49305-3 0  9996
2 41849  98.0618 277.3771 0013117 249.6912 110.2907 15.12270308406043
CELTEE 1                
1 41850U 16067C   24103.39170550  .00005696  00000+0  40140-3 0  9995
2 41850  98.0984 269.5772 0001793  86.6504 273.4926 15.05431097405529
OPTICUBE 04             
1 41851U 16067D   24103.75246175  .00002930  00000+0  22775-3 0  9995
2 41851  98.0674 266.0126 0017167 276.2303  83.6964 15.02039741405415
AEROCUBE 8D             
1 41852U 16067E   24103.43011533  .00005739  00000+0  39370-3 0  9998
2 41852  98.1018 269.2088 0004404 334.7623  25.3387 15.06432645405490
AEROCUBE 8C             
1 41853U 16067F   24103.70701495  .00007113  00000+0  48738-3 0  9998
2 41853  98.0837 268.2448 0007203 255.4230 104.6197 15.06368224405526
PROMETHEUS 2-1          
1 41854U 16067G   24103.47202635  .00013493  00000+0  74421-3 0  9991
2 41854  98.0979 274.3302 0013098 278.7477  81.2269 15.14037289405782
PROMETHEUS 2-3          
1 41855U 16067H   24103.46761439  .00013144  00000+0  72546-3 0  9992
2 41855  98.0904 273.8783 0010900 288.4119  71.5925 15.14041585405783
DIDO-2                  
1 42000U 17008BE  24103.61106630  .00093647  00000+0  87133-3 0  9998
2 42000  97.1462 163.4073 0001668  41.3542 318.7845 15.67095714398462
AALTO-1                 
1 42775U 17036L   24103.81161021  .00051756  00000+0  73791-3 0  9995
2 42775  97.1143 133.1595 0008014  95.5661 264.6509 15.56115256378900
URSA MAIOR              
1 42776U 17036M   24103.84390918  .00089439  00000+0  88379-3 0  9995
2 42776  97.1111 136.3731 0006338  96.1272 264.0711 15.65582064379102
DIAMOND RED             
1 42783U 17036U   24103.62189423  .00420047  69626-4  12725-2 0  9995
2 42783  97.0934 142.6567 0003530 151.4142 208.7327 15.92088888379508
DIAMOND BLUE            
1 42786U 17036X   24103.82977925  .01614450  21876-2  13322-2 0  9993
2 42786  97.0933 144.0774 0007367 212.5134 147.5700 16.14510699379609
CICERO 6                
1 42793U 17036AE  24103.61630772  .00105170  00000+0  87053-3 0  9993
2 42793  97.0988 140.3052 0005120 105.4495 254.7334 15.69918976379445
CORVUS BC2              
1 42846U 17042X   24103.50027701  .00002953  00000+0  26141-3 0  9995
2 42846  97.3753 292.2915 0007232 282.5029  77.5384 14.96969537367618
CORVUS BC1              
1 42847U 17042Y   24103.53484561  .00004246  00000+0  37237-3 0  9995
2 42847  97.3745 292.7164 0006498 278.5867  81.4619 14.97115254367636
MIRATA                  
1 43015U 17073C   24103.23292661  .00019561  00000+0  98683-3 0  9990
2 43015  97.6032 348.8755 0180635 125.5682 236.2532 15.03979131346403
MAKERSAT 0              
1 43016U 17073D   24103.59443418  .00010728  00000+0  63369-3 0  9997
2 43016  97.5893 344.4719 0203658 142.6894 218.8675 14.95834813346104
CORVUS BC3              
1 43118U 18004H   24103.19863952  .00100309  00000+0  85929-3 0  9991
2 43118  97.2902 186.7030 0004242 142.5910 217.5648 15.69102712348504
GOMX-4B                 
1 43196U 18015E   24103.46250246  .00044284  00000+0  65640-3 0  9992
2 43196  97.6063 272.4711 0009955 196.5974 163.4955 15.55070750345289
GOMX-4A                 
1 43197U 18015F   24103.79211774  .00064281  00000+0  72073-3 0  9999
2 43197  97.5987 277.0215 0008652 188.8390 171.2717 15.62426861345620
CICERO 10               
1 43690U 18088A   24103.54988080  .00083545  00000+0  94063-3 0  9998
2 43690  85.0180 226.2179 0008548 183.9729 176.1468 15.62231619301901
PROXIMA I               
1 43694U 18088E   24103.35295202  .00203247  00000+0  11705-2 0  9992
2 43694  85.0097 219.7737 0004492 182.0837 178.0417 15.78132108302347
PROXIMA II              
1 43696U 18088G   24103.55934700  .00193037  00000+0  11668-2 0  9992
2 43696  85.0102 219.7827 0004241 181.5052 178.6207 15.77065083302351
SIRION PATHFINDER-2     
1 43759U 18099B   24103.62062846  .00004743  00000+0  36780-3 0  9993
2 43759  97.5384 161.6273 0014071 146.8365 213.3745 15.01773767292662
CORVUS BC4              
1 43767U 18099K   24103.09214336  .00004300  00000+0  33995-3 0  9990
2 43767  97.5213 158.5134 0008490 226.3604 133.6917 15.01137587292479
MOVE-II                 
1 43780U 18099Y   24103.40885627  .00013284  00000+0  76459-3 0  9990
2 43780  97.5265 167.1395 0007738 193.5948 166.5076 15.12538382292972
SPACEBEE-7              
1 43816U 18099BL  24103.42430605  .00009838  00000+0  62145-3 0  9991
2 43816  97.5537 168.0125 0011858 150.0526 210.1383 15.09203501292484
SPACEBEE-6              
1 43818U 18099BN  24103.16330214  .00021426  00000+0  10484-2 0  9994
2 43818  97.5461 172.1159 0010851 159.0833 201.0847 15.18164193292877
SHIELDS 1               
1 43850U 18104B   24103.61361826  .00011071  00000+0  31943-3 0  9999
2 43850  85.0237 327.5596 0009849 328.5860  31.4800 15.35495789296094
